X,Y,OBJECTID,Precinct,Location,Address,Proposal,status,RetireStatus,FeatureID
-84.4492673885478,33.6557981233734,3,CP01B,College Park Auditorium,3631 Main Street, ,approved,active,
-84.3639115713245,34.0744629507449,24,RW19,North River Baptist Church,12090 Hardscrabble Road,"22/14, 23/14, 30/15",approved,active,
-84.5406391195127,33.7300078412091,28,SC02,Southwest Art Center,915 New Hope Rd, ,approved,active,
-84.6701607150461,33.6194770475065,29,SC04,Fire Station No. 17,8675 Ridge Rd, ,approved,active,
-84.3520455011396,33.7315773848268,46,01B,Ormewood Park Presby. Church,1071 Delaware Avenue, ,approved,active,
-84.4318433992843,33.7272382383137,54,04T,W Oakland Missionary Bapt Ch,1025 Violet St, ,approved,active,
-84.3860434490497,33.8287778228089,56,07H,2nd Ponce De Leon Bapt Church,2715 Peachtree Rd Ne - Fam Life Center, ,approved,active,
-84.5002456379134,33.7695378055408,57,09C,Jackson Memorial Baptist Church,534 Fairburn Rd, ,approved,active,
-84.4627427358972,33.7716227888223,58,09D,Salem Baptist Church,2283 Baker Road, ,approved,active,
-84.1957521015398,34.0549927010211,80,JC05,Abbotts Hill Elementary School,5575 Abbotts Bridge Road, ,approved,active,
-84.1302385728153,34.0464971646626,82,JC01,Shakerag Elementary School,10885 Rogers Circle, ,approved,active,
-84.359774009326,34.0462650576196,88,RW08,Crosspointe Community Church,77 E Crossville Rd Suite 203, ,approved,active,
-84.3834948594856,33.9170027904492,99,SS03,Lake Forest Elementary School,5920 Sandy Springs Cir,28/11,approved,active,
-84.3588359148002,33.8973687260419,102,SS12,Ridgeview Middle School,5340 South Trimble Rd,"26/08, 31/08",approved,active,
-84.3648276641282,33.73554000425,108,01A,Parkside Elem School,685 Mercer St Se,51/20,approved,proposed,
-84.3723432063577,33.6979872045891,113,01S,Dobbs Elementary School,2025 Jonesboro Rd Se,"06/10, 56/20",approved,proposed,
-84.3524776011338,33.7622390576602,115,02E,Little 5 Points Comm Center,1083 Austin Ave, ,approved,active,
-84.4134637891358,33.7631261294428,124,03G,Simpson Street Church Of Christ,800 Joseph E. Boone Blvd Nw,22/11,approved,active,
-84.4166831203805,33.7694677301916,127,03N,Lindsay Street Baptist Church,550 Lindsay St,14/09,approved,active,
-84.42160758105,33.7380316398867,134,04L,West Hunter Street Baptist Church,1040 Ralph David Abernathy Blvd Sw,,approved,active,
-84.4397575802971,33.7144318019087,135,04S,St Peters Bapt Church Rec Bldg,1558 Venetian Dr, ,approved,active,
-84.3677567148019,33.8013626047788,142,06D,Morningside Baptist Church Gym,1700 Piedmont Road,12/16 ,approved,active,
-84.3858121914139,33.7911507832487,146,06R,First Presbyterian Church,1328 Peachtree Street,"25/08, 30/08",approved,active,
-84.3677567148019,33.8013626047788,148,06E,Morningside Baptist Church Gym,1700 Piedmont Road,,approved,active,
-84.4225394881595,33.8709220409638,149,08A,"Jackson, Warren T School",1325 Mt Paran Rd, ,approved,active,
-84.3917605823057,33.8752940222011,150,08B,Chastain Park Gymnasium,140 W Wieuca Rd,32/11,approved,active,
-84.434703709565,33.8338957471695,151,08E,Morris Brandon Primary Ctr. School,2845 Margaret Mitchell Dr,"21/08, 05/10",approved,active,
-84.448326468356,33.7757858238359,154,09E,Dogwood Senior Center,1953 Donald L. Hollowell Pkwy Nw,35/08,approved,active,
-84.4698150446347,33.763515998736,161,10F,Berean Seventh Day Advent. Church,291 Hamilton E Holmes Dr, ,approved,active,
-84.4765695400088,33.7474853404513,162,10G,St Paul's Episcopal Church,306 Peyton Rd, ,approved,active,
-84.5162064476193,33.696496341923,170,11C,Fickett School,3935 Rux Rd,"7/14R, 42/17",approved,proposed,
-84.4655768155395,33.7180240356097,175,11K,Cascade Elementary School,2326 Venetian Dr Sw,"20/08, 27/08, 03/09, 58/20",approved,proposed,
-84.457116385516,33.7502455008888,186,10J,Westside Community Church,2114 Martin Luther King Jr Dr, ,approved,active,
-84.2393772697889,34.017148850699,193,JC13A,Autry Mill Middle School,4110 Old Alabama Road, ,approved,active,
-84.364483869362,33.7166292623505,197,01T,Benteen Elem School,200 Cassanova St, ,approved,active,
-84.1834291509069,34.0396675507247,206,JC06,Northview High School,10625 Parsons Road, ,approved,active,
-84.3636494673629,34.0177034436711,238,RW11B,1st Baptist Church Of Roswell,710 Mimosa Blvd, ,approved,active,
-84.2393772697889,34.017148850699,240,JC13B,Autry Mill Middle School,4110 Old Alabama Road, ,approved,active,
-84.4051939011802,33.7680877511774,245,03P2,Antioch Baptist Ch Family Cntr,540 Cameron M Alexander Blvd Nw,82/20,approved,proposed,
-84.2206794129669,34.0624086985734,262,JC10,Messiah Lutheran Church,4765 Kimball Bridge Road, ,approved,active,
-84.2865040231174,34.0067225299429,273,RW22B,Centennial High School,9310 Scott Road, ,approved,active,
-84.4395846899426,33.7527295527573,290,04D,C. A. Scott Recreation Bldg,1565 M L King Jr Dr Sw, ,approved,active,
-84.3827185987585,33.8477046797362,293,08M,Ptree Presbyterian Church,3434 Roswell Rd, ,approved,active,
-84.3581018264519,33.8747182246487,294,07B,St James Methodist Ch,4400 Peachtree Dunwoody Rd, ,approved,active,
-84.4287239586982,33.7191430072616,295,04M,James Orange Park,1305 Oakland Ln,05/12,approved,active,
-84.3614008286971,33.918789879368,302,SS08B,Hammond Park Gym,705 Hammond Drive Ne, ,approved,active,
-84.3614008286971,33.918789879368,303,SS08C,Hammond Park Gym,705 Hammond Drive Ne, ,approved,active,
-84.3753219482954,33.8576468277057,336,07A,Sarah Rawson Smith Elem School,370 Old Ivy Rd Ne,"23/10, 35/10",approved,active,
-84.4922959859169,33.6786424086573,337,11J,Continental Colony Elementary School,3181 Hogan Rd,"20/10, 09/11",approved,active,
-84.4698150446347,33.763515998736,344,03S,Berean Seventh Day Advent. Church,291 Hamilton E Holmes Dr,35/11,approved,active,
-84.3602292566091,33.6933330250195,352,01P,Bible Way Ministries,894 Constitution Rd,226/12R,approved,active,
-84.448141828315,33.7327350077684,356,10M,"Mcghee, Joseph Tennis Center",820 Beecher Ct,230/12R ,approved,active,
-84.4492673885478,33.6557981233734,367,CP02,College Park Auditorium,3631 Main Street,238/12R ,approved,active,
-84.4719472466768,33.6376060829882,369,CP07B,Camp Truitt Senior Center,4320 Herschel Rd,"33/11, 239/12R",approved,active,
-84.2836173278792,34.1639345289139,396,ML07A,Hopewell Baptist Church,15730 Hopewell Rd,26/12R,approved,active,
-84.4836706887484,33.5954088778175,401,SC09B,Burdett Park Gym,2945 Burdett Rd,28/12R ,approved,active,
-84.4920975663081,33.6276904527336,407,SC19A,Solid Rock Pentecostal Church,4707 Washington Rd,31/12R,approved,active,
-84.4920975663081,33.6276904527336,408,SC19B,Solid Rock Pentecostal Church,4707 Washington Rd,31/12R,approved,active,
-84.4162275793247,33.829622863203,422,08F1,"Brandon, Morris School",2741 Howell Mill Rd Nw,72/12R,approved,active,
-84.3555137648581,33.7523221761081,431,05A2,Lang-Carson Recreation Center,100 Flat Shoals Ave,99/12R,approved,active,
-84.5973108332462,33.6511707939056,440,SC05A,Cliftondale Community House,4645 Butner Rd,104/12R,approved,active,
-84.5578599750675,33.5873189750927,446,UC02A,Etris Community Center,5285 Lakeside Dr,107/12R,approved,active,
-84.5578599750675,33.5873189750927,447,UC02B,Etris Community Center,5285 Lakeside Dr,107/12R,approved,active,
-84.386057714063,33.8311526142016,448,07F,Cathedral Of Saint Philip,2744 Peachtree Rd Nw,07/12,approved,active,
-84.4131198074966,33.7603005464658,450,03E,Greater Bethany Baptist Church,786 Thurmond Street,11/12,approved,active,
-84.339485815035,34.0900607401171,456,AP04A,Alpharetta Crabapple Government Center,12624 Broadwell Rd,288/12R,approved,active,
-84.339485815035,34.0900607401171,457,AP04B,Alpharetta Crabapple Government Center,12624 Broadwell Rd,288/12R,approved,active,
-84.4492673885478,33.6557981233734,459,CP012,College Park Auditorium,3631 Main Street,289/12R,approved,active,
-84.3648435648884,33.9278826741831,468,SS29A,1st Baptist Ch. Sandy Springs,650 Mt Vernon Hwy,"294/12R, 9/20",approved,proposed,
-84.3648435648884,33.9278826741831,469,SS29B,1st Baptist Ch. Sandy Springs,650 Mt Vernon Hwy,294/12R,approved,active,
-84.4147988756573,33.9068027080624,487,SS09A,Mt Vernon Baptist Church,850 Mt Vernon Hwy Nw,"4/13, 116/20",approved,proposed,
-84.407467239938,33.8133919778647,494,08K,"Grant, Bitsy Tennis Center",2125 Northside Dr,"7/13new, 60/17",approved,proposed,
-84.3565243726487,33.7041759929402,502,01R,Thomasville Recreation Center,1835 Henry Thomas Dr,14/13,approved,active,
-84.3774668168313,33.7637456111762,507,02D,Butler Street Baptist Church,315 Ralph Mcgill Blvd,04/13R,approved,active,
-84.4015863552961,33.7414729588885,509,04I,Paul L. Dunbar School,500 Whitehall Terrace Sw,"05/13R, 57/20",approved,proposed,
-84.3990581136686,33.7287552763504,520,12N,Pittman Park Rec Center,950 Garibaldi St,"98/12R, 13/13R",approved,active,
-84.374501965309,33.7534843306975,521,05B,Liberty Baptist Church,395 Chamberlain St Se,"23/08, 10/12, 14/13R",approved,active,
-84.374501965309,33.7534843306975,522,01H,Liberty Baptist Church,395 Chamberlain St Se,14/13R,approved,active,
-84.3860434490497,33.8287778228089,542,06N,2nd Ponce De Leon Bapt Church,2715 Peachtree Rd Ne - Fam Life Center,18/13 ,approved,active,
-84.3860434490497,33.8287778228089,543,06Q,2nd Ponce De Leon Bapt Church,2715 Peachtree Rd Ne - Fam Life Center,18/13,approved,active,
-84.3614008286971,33.918789879368,558,SS08D,Hammond Park Gym,705 Hammond Drive Ne,1/13RS,approved,active,
-84.3614008286971,33.918789879368,559,SS08A,Hammond Park Gym,705 Hammond Drive Ne,1/13RS,approved,active,
-84.4065400523061,33.8330383545996,561,08J,Sutton Middle School,2875 Northside Dr,17/13,approved,active,
-84.3391564580444,33.9962403279018,562,SS15A,Sandy Springs Middle School,8750 Pride Place,15/13,approved,active,
-84.3391564580444,33.9962403279018,563,SS15B,Sandy Springs Middle School,8750 Pride Place,15/13,approved,active,
-84.3307318269007,34.0370117997813,582,RW07A,Mimosa Elementary School,1550 Warsaw Rd,4/14R,approved,active,
-84.3307318269007,34.0370117997813,583,RW07B,Mimosa Elementary School,1550 Warsaw Rd,4/14R,approved,active,
-84.4051939011802,33.7680877511774,584,03P1A,Antioch Baptist Ch Family Cntr,540 Cameron M Alexander Blvd Nw,5/14R,approved,active,
-84.4051939011802,33.7680877511774,585,03P1B,Antioch Baptist Ch Family Cntr,540 Cameron M Alexander Blvd Nw,5/14R,approved,active,
-84.4719472466768,33.6376060829882,588,CP07A,Camp Truitt Senior Center,4320 Herschel Rd,8/14R,approved,active,
-84.4719472466768,33.6376060829882,589,CP07D,Camp Truitt Senior Center,4320 Herschel Rd,8/14R,approved,active,
-84.374501965309,33.7534843306975,590,05C,Liberty Baptist Church,395 Chamberlain St Se,1/14,approved,active,
-84.374501965309,33.7534843306975,591,01I,Liberty Baptist Church,395 Chamberlain St Se,1/14,approved,active,
-84.4287239586982,33.7191430072616,599,04G,James Orange Park,1305 Oakland Ln,6/14,approved,active,
-84.3777085582497,33.8182091388612,601,06I,Peachtree Hills Recreation,308 Peachtree Hills Ave Ne,8/14,approved,active,
-84.3917605823057,33.8752940222011,603,08C,Chastain Park Gymnasium,140 W Wieuca Rd,9/14,approved,active,
-84.7690763538977,33.5789383117467,606,CH01,Chattahoochee Hills City Hall,6505 Rico Rd,13/14,approved,active,
-84.7690763538977,33.5789383117467,607,CH02,Chattahoochee Hills City Hall,6505 Rico Rd,13/14,approved,active,
-84.7690763538977,33.5789383117467,608,CH03,Chattahoochee Hills City Hall,6505 Rico Rd,13/14,approved,active,
-84.7690763538977,33.5789383117467,609,CH04A,Chattahoochee Hills City Hall,6505 Rico Rd,13/14,approved,active,
-84.7690763538977,33.5789383117467,610,CH04B,Chattahoochee Hills City Hall,6505 Rico Rd,13/14,approved,active,
-84.7690763538977,33.5789383117467,611,CH05,Chattahoochee Hills City Hall,6505 Rico Rd,13/14,approved,active,
-84.4719472466768,33.6376060829882,617,CP051,Camp Truitt Senior Center,4320 Herschel Rd,14/14,approved,active,
-84.4719472466768,33.6376060829882,618,CP052,Camp Truitt Senior Center,4320 Herschel Rd,14/14,approved,active,
-84.4719472466768,33.6376060829882,619,CP053,Camp Truitt Senior Center,4320 Herschel Rd,14/14,approved,active,
-84.4719472466768,33.6376060829882,620,CP05B,Camp Truitt Senior Center,4320 Herschel Rd,14/14,approved,active,
-84.5823615079711,33.5641938236838,622,FA01B,First Baptist Church of Fairburn,23 Malone St SE,16/14 ,approved,active,
-84.1829439274097,34.0348860750364,623,JC07,Wilson Creek Elementary Sch,6115 Wilson Rd,17/14 ,approved,active,
-84.2699781873793,34.0292750321203,626,JC16,Prince Of Peace Lutheran Church,10250 Haynes Bridge Road,"20/14, 32/15",approved,active,
-84.5170199091166,33.5928129863849,632,SC08A,Banneker High School,6015 Feldwood Rd,25/14,approved,active,
-84.5170199091166,33.5928129863849,633,SC08B,Banneker High School,6015 Feldwood Rd,25/14,approved,active,
-84.363662231504,34.0575159690665,642,RW12,Lebanon Church,11250 Crabapple Road,24/14,approved,active,
-84.624199595377,33.5569565270923,648,SC07B,Bear Creek Middle School,7415 Herndon Rd,33/14,approved,active,
-84.5275391762521,33.631029690121,649,SC17A,"Welcome All Park, Community House",4255 Will Lee Road,"34/14, 41/14",approved,active,
-84.5275391762521,33.631029690121,650,SC17B,"Welcome All Park, Community House",4255 Will Lee Road,"34/14, 41/14",approved,active,
-84.5275391762521,33.631029690121,651,SC17C,"Welcome All Park, Community House",4255 Will Lee Road,"34/14, 41/14",approved,active,
-84.389463176786,33.7972088948368,669,02W,Peachtree Christian Church,1580 Peachtree Street Nw,46/14,approved,active,
-84.389463176786,33.7972088948368,670,03F,Peachtree Christian Church,1580 Peachtree Street Nw,46/14,approved,active,
-84.389463176786,33.7972088948368,671,06L1,Peachtree Christian Church,1580 Peachtree Street Nw,46/14,approved,active,
-84.389463176786,33.7972088948368,672,06L2,Peachtree Christian Church,1580 Peachtree Street Nw,46/14,approved,active,
-84.3588359148002,33.8973687260419,679,SS14,Ridgeview Middle School,5340 South Trimble Rd,3/15,approved,active,
-84.4899139416357,33.6991251897314,681,11M,"Therrell, D.M. High School",3099 Panther Trail Sw,"5/15, 60/20",approved,active,
-84.3723432063577,33.6979872045891,682,01C,Dobbs Elementary School,2025 Jonesboro Rd Se,"1/15R, 56/20",approved,proposed,
-84.4719465842885,33.6376083820779,686,CP06A,Camp Truitt Senior Center,4320 Herschel Rd,14/15R  ,approved,active,
-84.4719465842885,33.6376083820779,687,CP06B,Camp Truitt Senior Center,4320 Herschel Rd,14/15R  ,approved,active,
-84.434703709565,33.8338957471695,688,08F2,Morris Brandon Primary Ctr. School,2845 Margaret Mitchell Dr,"21/08, 05/10, 7/15R",approved,active,
-84.4648579390131,33.6159446501952,689,CP084,Tracey Wyatt Recreation Center,2300 Godby Rd,6/15R,approved,active,
-84.4648579390131,33.6159446501952,690,CP081,Tracey Wyatt Recreation Center,2300 Godby Rd,15/15R,approved,active,
-84.4648579390131,33.6159446501952,691,CP083,Tracey Wyatt Recreation Center,2300 Godby Rd,15/15R,approved,active,
-84.3777085582497,33.8182091388612,694,07J,Peachtree Hills Recreation,308 Peachtree Hills Ave Ne,10/15,approved,active,
-84.339485815035,34.0900607401171,696,AP06,Alpharetta Crabapple Government Center,12624 Broadwell Rd,13/15,approved,active,
-84.3307318269007,34.0370117997813,700,AP03,Mimosa Elementary School,1550 Warsaw Rd,14/15,approved,active,
-84.4128532078997,33.7136669883406,709,12D,Perkerson Park Rec Center,770 Deckner Ave,18/15 ,approved,active,
-84.3364919479729,34.0904210620484,710,ML01B,Milton Library,855 Mayfield Rd,20/15 ,approved,active,
-84.2939010097745,34.0030862211415,713,RW20,East Roswell Library,2301 Holcomb Bridge Road,21/15,approved,active,
-84.5300617974602,33.7015934508521,716,11B,Ralph Bunche Middle School,1925 Niskey Lake Rd Sw,8/15,approved,active,
-84.491945116938,33.7356830244326,717,10B,West Manor Park,3240 West Manor Cir,7/15,approved,active,
-84.491945116938,33.7356830244326,718,10I,West Manor Park,3240 West Manor Cir,7/15,approved,active,
-84.4385473752863,33.7751130260891,721,03H,Grove Park Recreation Center,750 Francis Pl Nw,23/15,approved,active,
-84.4385473752863,33.7751130260891,722,03B,Grove Park Recreation Center,750 Francis Pl Nw,23/15,approved,active,
-84.4385473752863,33.7751130260891,723,09I,Grove Park Recreation Center,750 Francis Pl Nw,23/15,approved,active,
-84.4700030857422,33.8054004836194,724,09K,Northwest Library at Scotts Crossing,2489 Perry Blvd Nw,24/15,approved,active,
-84.4074214461284,33.7185077132821,727,12A,Metropolitan Library,1332 Metropolitan Pkwy Sw,26/15,approved,active,
-84.6640522449802,33.5304995381612,728,PA01,Palmetto Library,9111 Cascade Palmetto Hwy,27/15,approved,active,
-84.3637769982281,33.6686181234358,735,12M,South Atlanta High School,800 Hutchens Rd,"37/15, 52/20",approved,proposed,
-84.3620431395583,33.9655960232748,741,SS19B,North Annex,7741 Roswell Rd,36/15,approved,active,
-84.4648579390131,33.6159446501952,742,CP08A,Tracey Wyatt Recreation Center,2300 Godby Rd,1/16 ,approved,active,
-84.4157329844473,34.0827955010728,743,MP01,Mountain Park Community Center,100 Lakeshore Dr,2/16,approved,active,
-84.2925119146093,34.073739636525,747,AP10,Alpharetta Library,10 Park Plaza,5/16,approved,active,
-84.370749987514,33.7590864235321,748,02G,Helene S. Mills Senior Center,515 John Wesley Dobbs Ave NE,6/16,approved,active,
-84.5746057424618,33.6727122099875,767,SC20,Wolf Creek Library,3100 Enon Rd Sw,14/16,approved,active,
-84.3939885203938,33.682425546665,768,12H1,Cleveland Avenue School,2672 Old Hapeville Rd,"19/16, 54/20",approved,proposed,
-84.3939885203938,33.682425546665,769,12H2,Cleveland Avenue School,2672 Old Hapeville Rd,"19/16, 53/20",approved,proposed,
-84.4648579390131,33.6159446501952,770,SC10,Tracey Wyatt Recreation Center,2300 Godby Rd,21/16 ,approved,active,
-84.1861370631277,34.0606962417634,771,JC03A,Findley Oaks Elementary School,5880 Findley Chase Drive,22/16,approved,active,
-84.1861370631277,34.0606962417634,772,JC03B,Findley Oaks Elementary School,5880 Findley Chase Drive,22/16,approved,active,
-84.3333179227153,33.9742433467631,774,SS17,Temple Emanuel,1580 Spalding Dr,24/16,approved,active,
-84.5913821249743,33.6578317659456,779,SC15,The Enon Church,3550 Enon Rd,27/16,approved,active,
-84.435624021537,33.68244082287,781,EP02A,Jefferson Recreation Center,1431 Norman Berry Drive,20/16,approved,active,
-84.435624021537,33.68244082287,783,EP02C,Jefferson Recreation Center,1431 Norman Berry Drive,20/16,approved,active,
-84.4947666974652,33.6473480556311,786,EP04A,Brookview Elememtary Sch,3250 Hammarskjold Dr,28/16,approved,active,
-84.4762771514991,33.6777330852149,790,EP03A,St. Stephens Miss. Baptist Church,2670 Hogan Rd,30/16,approved,active,
-84.5973108332462,33.6511707939056,792,SC05D,Cliftondale Community House,4645 Butner Rd,1/17,approved,active,
-84.5973108332462,33.6511707939056,793,SC05E,Cliftondale Community House,4645 Butner Rd,1/17,approved,active,
-84.4836706887484,33.5954088778175,797,SC09A,Burdett Park Gym,2945 Burdett Rd,3/17 ,approved,active,
-84.4687811803059,33.5747823198811,803,SC23A,New Life Presbyterian Church,6600 Old National Hwy,6/17,approved,active,
-84.624199595377,33.5569565270923,805,SC07A,Bear Creek Middle School,7415 Herndon Rd,7/17,approved,active,
-84.624199595377,33.5569565270923,806,SC07C,Bear Creek Middle School,7415 Herndon Rd,7/17,approved,active,
-84.2666920235337,33.977343821315,817,RW21,Johns Creek Environmental Campus,8100 Holcomb Bridge Rd,15/17,approved,active,
-84.4037452322433,33.7540159790908,832,04J,Central United Methodist Ch,501 Mitchell St,"11/13R, 22/17",approved,active,
-84.5119491014635,33.6893961214928,835,11E1,William Walker Recreation Center,2405 Fairburn Rd Sw,24/17,approved,active,
-84.5119491014635,33.6893961214928,836,11E2,William Walker Recreation Center,2405 Fairburn Rd Sw,24/17,approved,active,
-84.4079832923828,33.6598586497676,838,HP01,Hoyt Smith Center,3444 N Fulton Ave,25/17,approved,active,
-84.2547613778356,34.0779500616622,839,AP12A,Alpharetta High School,3595 Webb Bridge Rd,26/17,approved,active,
-84.2547613778356,34.0779500616622,840,AP12B,Alpharetta High School,3595 Webb Bridge Rd,26/17,approved,active,
-84.2547613778356,34.0779500616622,841,AP12C,Alpharetta High School,3595 Webb Bridge Rd,26/17,approved,active,
-84.2547613778356,34.0779500616622,842,AP12D,Alpharetta High School,3595 Webb Bridge Rd,26/17,approved,active,
-84.312858325615,33.9952023158087,851,RW04,River Eves Elementary,9000 Eves Road,32/17,approved,active,
-84.3345232888506,34.0543135729262,852,RW05,Elkins Pointe Middle School,11290 Elkins Road,33/17,approved,active,
-84.3169066471535,34.0106725842902,853,RW17,"Jackson, Esther S Elem School",1400 Martin Rd,34/17,approved,active,
-84.524301315162,33.555176921099,859,UC033,Christian City - Sparks Auditorium,7290 Lester Rd,37/17,approved,active,
-84.524301315162,33.555176921099,860,UC035,Christian City - Sparks Auditorium,7290 Lester Rd,37/17,approved,active,
-84.524301315162,33.555176921099,863,SC21A,Christian City - Sparks Auditorium,7290 Lester Rd,37/17,approved,active,
-84.4765695400088,33.7474853404513,869,10H1,St Paul's Episcopal Church,306 Peyton Rd,45/17,approved,active,
-84.4765695400088,33.7474853404513,870,10H2,St Paul's Episcopal Church,306 Peyton Rd,45/17 ,approved,active,
-84.2532217919057,34.0609477776606,877,AP01E,Georgia State University - 2nd Floor,3775 Brookside Pkwy,43/17,approved,active,
-84.5636110707729,33.7032027939559,880,SC16A,Sandtown Park Recreation Center,5320 Campbellton Rd,47/17,approved,active,
-84.4492673885478,33.6557981233734,883,CP04A,College Park Auditorium,3631 Main Street,49/17,approved,active,
-84.4492673885478,33.6557981233734,884,CP04B,College Park Auditorium,3631 Main Street,49/17,approved,active,
-84.5862497914502,33.5250996144029,886,FA01C,Harvest Rain Church,8567 Bohannon Rd,"58/17, 2/18",approved,proposed,
-84.4719472466768,33.6376060829882,889,CP07C,Camp Truitt Senior Center,4320 Herschel Rd,50/17,approved,active,
-84.4719472466768,33.6376060829882,890,CP07E,Camp Truitt Senior Center,4320 Herschel Rd,50/17,approved,active,
-84.4719472466768,33.6376060829882,891,CP07F,Camp Truitt Senior Center,4320 Herschel Rd,50/17,approved,active,
-84.4416437479178,33.7637358778948,893,03A,Allen Temple AME Church,1625 Joseph E. Boone Blvd Nw,61/17,approved,active,
-84.4395846899426,33.7527295527573,894,04C,C. A. Scott Recreation Bldg,1565 M L King Jr Dr Sw,61/17,approved,active,
-84.4916274569987,33.7536976470116,898,10D,C.T. Martin Natatorium & Recreation Center,3201 M L King Jr Dr SW,1/18,approved,active,
-84.5142665279897,33.7550858499034,902,10A,The Kindezi School - West,286 Wilson Mill Road,4/18,approved,active,
-84.5002456379134,33.7695378055408,912,10E,Jackson Memorial Baptist Church,534 Fairburn Rd,"14/18, 25/19",approved,proposed,
-84.3939885203938,33.682425546665,918,12E2,Cleveland Avenue School,2672 Old Hapeville Rd,17/18,approved,active,
-84.3990581136686,33.7287552763504,922,12K,Pittman Park Rec Center,950 Garibaldi St,20/18,approved,active,
-84.2836173278792,34.1639345289139,923,ML03,Hopewell Baptist Church,15730 Hopewell Rd,26/12R,approved,active,
-84.3021888179856,34.0258101238226,926,RW06,Saint Mary's Orthodox Church,1950 Old Alabama Rd,23/18,approved,active,
-84.483238862159,33.5671378607504,929,SC11B,Creel Park,2775 Creel Road,24/18,approved,active,
-84.2336296913136,34.0373711818987,932,JC14,Dolvin Elementary School,10495 Jones Bridge Road,27/18,approved,active,
-84.483238862159,33.5671378607504,936,SC29B,Creel Park,2775 Creel Road,25/18,approved,active,
-84.2296219166866,34.0668087872395,941,AP09A,Webb Bridge Middle School,4455 Webb Bridge Rd,30/18,approved,active,
-84.2296219166866,34.0668087872395,942,AP09B,Webb Bridge Middle School,4455 Webb Bridge Rd,30/18,approved,active,
-84.2826312559056,34.0398326353442,943,AP01C,Haynes Bridge Middle School,10665 Haynes Bridge Rd,31/18,approved,active,
-84.2826312559056,34.0398326353442,944,AP01D,Haynes Bridge Middle School,10665 Haynes Bridge Rd,31/18,approved,active,
-84.2720983284992,34.0517041623997,946,AP01A,New Prospect Elementary,3055 Kimball Bridge Rd,"32/18, 118/20",approved,proposed,
-84.5166940087453,33.7734468060521,948,FC02,Aviation Community Cultural Center,3900 Aviation Cir Nw,2/19,approved,active,
-84.5636110707729,33.7032027939559,949,FC03,Sandtown Park Recreation Center,5320 Campbellton Rd,3/19,approved,active,
-84.3113284748867,34.0713769120457,951,AP02B,Wills Recreation Center,11925 Wills Rd,5/19,approved,active,
-84.3113284748867,34.0713769120457,953,AP022,Wills Recreation Center,11925 Wills Rd,5/19,approved,active,
-84.5022496932771,33.5762702186234,957,SC29A,S L Lewis Elementary School,6201 Connell Road,9/19,approved,active,
-84.5068309845844,33.768823981571,960,10P,Collier Park Recreation Center,3691 Collier Dr NW,12/19,approved,active,
-84.2763984840686,34.0843212286064,961,ML06A,Manning Oaks Elementary School,405 Cumming St,13/19,approved,active,
-84.2743892949156,34.119575153996,962,ML06B,Cambridge High School,2845 Bethany Bend,14/19,approved,active,
-84.6314306323844,33.6171567960789,964,SC13,Langston Hughes High School,7510 Hall Road,16/19,approved,active,
-84.5896797837372,33.6440294868025,965,SC05B,Cliftondale Church,4095 Stonewall Tell Rd,18/19,approved,active,
-84.5214858672632,33.5558102739417,968,UC031,Christian City Welcome Center,7345 Red Oak Rd,19/19,approved,active,
-84.5214858672632,33.5558102739417,969,UC032,Christian City Welcome Center,7345 Red Oak Rd,19/19,approved,active,
-84.3501140284105,33.9599530569658,970,SS20,Woodland Elem. School,1130 Spalding Dr,20/19,approved,active,
-84.3364919479729,34.0904210620484,972,ML01A,Milton Library,855 Mayfield Rd,1/19M,approved,active,
-84.3424888257284,34.1444027061888,973,ML02A,Birmingham Falls Elem,14865 Birmingham Hwy,2/19M,approved,active,
-84.3424888257284,34.1444027061888,974,ML02B,Birmingham Falls Elem,14865 Birmingham Hwy,2/19M,approved,active,
-84.2836173278792,34.1639345289139,975,ML07B,Hopewell Baptist Church,15730 Hopewell Rd,3/19M,approved,active,
-84.2798048765355,34.1020742200264,976,ML05,Cogburn Woods Elem School,13080 Cogburn Rd,4/19M,approved,active,
-84.3938041932945,33.7145879705303,978,01J,Louise Watley Library at Southeast Atlanta,1463 Pryor Road Sw,22/19,approved,active,
-84.479054265053,33.7897456893761,980,09B,Coretta Scott King Young Women's Academy,1190 Northwest Dr NW,28/19,approved,active,
-84.5073133122526,33.7235601612464,982,SC30A,Southwest Regional Library,3665 Cascade Rd,30/19,approved,active,
-84.5073133122526,33.7235601612464,983,SC30B,Southwest Regional Library,3665 Cascade Rd,30/19,approved,active,
-84.4241972069543,33.75407791293,985,03D,Washington Park Library,1116 M L King Jr Dr Sw,32/19,approved,active,
-84.4241972069543,33.75407791293,986,04A,Washington Park Library,1116 M L King Jr Dr Sw,32/19,approved,active,
-84.4067290895441,33.7490391236297,987,04B,Flipper Temple AME Church,580 Atlanta Student Movement Blvd,33/19,approved,active,
-84.424938794072,33.7825797338781,990,03M,M28 Church,1150 Niles Avenue,36/19,approved,active,
-84.4168654345702,33.7490325900724,991,04W,Morehouse College-Archer Hall,876 Atlanta Student Movement Blvd,37/19,approved,active,
-84.4948527456033,33.7506867174709,992,10R,Concord Baptist Church,3270 Boulder Park Dr SW,41/19,approved,active,
-84.4616669832531,33.7052694923985,995,11G,Adams Park Library,2231 Campbellton Rd SW,39/19,approved,active,
-84.4616669832531,33.7052694923985,996,12I,Adams Park Library,2231 Campbellton Rd SW,39/19,approved,active,
-84.3744112073907,33.9243015393576,997,SS06,Sandy Springs Library,395 Mount Vernon Hwy Ne,40/19,approved,active,
-84.357789030406,34.0252850613378,999,RW11A,Roswell Library,115 Norcross St,42/19,approved,active,
-84.3521590950338,33.8963764815537,1000,SS11A,Church Of The Redeemer,5185 Peachtree Dunwoody Rd,43/19,approved,active,
-84.4410067526685,33.7326790156367,1009,04X1,Tuskegee Airmen Academy,1626 Westhaven Dr SW,23/19,approved,proposed,
-84.4410067526685,33.7326790156367,1010,04X2,Tuskegee Airmen Academy,1626 Westhaven Dr SW,23/19,approved,proposed,
-84.4631233229045,33.7347973437494,1012,10K,Beecher Hills Elementary School,2257 Bollingbrook Dr SW,26/19,approved,active,
-84.4631233229045,33.7347973437494,1013,11H,Beecher Hills Elementary School,2257 Bollingbrook Dr SW,26/19,approved,active,
-84.4263740294849,33.909735314684,1014,SS16,Heard Ferry Elementary School,6151 Powers Ferry Rd NW,3/20,approved,active,
-84.3876866856484,33.7341184278717,1015,01G,FanPlex,768 Hank Aaron Dr SE,2/20,approved,active,
-84.4417136080896,33.6827641078104,1016,EP01A,East Point First Mallalieu UMC,2651 Church St,4/20,approved,active,
-84.2103670435749,34.0482175292767,1024,JC09,Taylor Road Middle School,5150 Taylor Road,10/20,approved,active,
-84.1960230096777,34.0224286686087,1025,JC11,Johns Creek High School,5575 State Bridge Rd,11/20,approved,active,
-84.2960279220874,34.0099480669312,1027,RW22A,Hillside Elem School,9250 Scott Rd,13/20,approved,active,
-84.5152577823112,33.5982172575495,1029,UC01A,Feldwood Elem School,5790 Feldwood Rd,15/20,approved,active,
-84.5152577823112,33.5982172575495,1030,UC01B,Feldwood Elem School,5790 Feldwood Rd,15/20,approved,active,
-84.5152577823112,33.5982172575495,1031,UC01C,Feldwood Elem School,5790 Feldwood Rd,15/20,approved,active,
-84.5152577823112,33.5982172575495,1032,UC01D,Feldwood Elem School,5790 Feldwood Rd,15/20,approved,active,
-84.5152577823112,33.5982172575495,1033,UC01E,Feldwood Elem School,5790 Feldwood Rd,15/20,approved,active,
-84.4134637891358,33.7631261294428,1040,03L,Simpson Street Church Of Christ,800 Joseph E. Boone Blvd Nw,20/20,approved,active,
-84.3747367706862,33.7688960426539,1045,02C,Central Park Recreation Center,400 Merritts Ave NE,9/20,approved,active,
-84.3747367706862,33.7688960426539,1046,05F,Central Park Recreation Center,400 Merritts Ave NE,9/20,approved,active,
-84.5073133122526,33.7235601612464,1047,SC14A,Southwest Regional Library,3665 Cascade Rd,26/20,approved,active,
-84.3629193772938,34.0196121905452,1057,RW02,Independence High School,791 Mimosa Blvd,35/20,approved,active,
-84.4128532078997,33.7136669883406,1058,12G,Perkerson Park Rec Center,770 Deckner Ave,30/20,approved,active,
-84.3915201565751,33.9351260300517,1062,SS18A,Abernathy Arts Center,254 Johnson Ferry Rd,39/20,approved,active,
-84.3915201565751,33.9351260300517,1063,SS18B,Abernathy Arts Center,254 Johnson Ferry Rd,39/20,approved,active,
-84.3915201565751,33.9351260300517,1064,SS05,Abernathy Arts Center,254 Johnson Ferry Rd,38/20,approved,active,
-84.3744112073907,33.9243015393576,1065,SS31,Sandy Springs Library,395 Mount Vernon Hwy Ne,40/20,approved,active,
-84.3876866856484,33.7341184278717,1066,01F,FanPlex,768 Hank Aaron Dr SE,,approved,active,
-84.434703709565,33.8338957471695,1068,09F,Morris Brandon Primary Ctr. School,2845 Margaret Mitchell Dr,,approved,active,
-84.3692945051621,33.7820112755181,1074,02J,Park Tavern,500 10th St NE,,approved,active,
-84.3692945051621,33.7820112755181,1075,02K,Park Tavern,500 10th St NE,,approved,active,
-84.3692945051621,33.7820112755181,1076,06G,Park Tavern,500 10th St NE,,approved,active,
-84.3727768959131,33.7885634258805,1079,02A,Piedmont Park Magnolia Hall,1320 Monroe Dr,41/20,approved,active,
-84.3851817503227,33.7663804103513,1081,02B,Saint Luke's Episcopal Church,435 Peachtree St NE,42/20,approved,active,
-84.3851817503227,33.7663804103513,1083,05D,Saint Luke's Episcopal Church,435 Peachtree St NE,42/20,approved,active,
-84.3553405827748,33.7740235018853,1084,06F,Ponce De Leon Library,980 Ponce De Leon Ave,43/20,approved,active,
-84.3794027948646,33.837619556298,1085,07D,Buckhead Library,269 Buckhead Ave,44/20,approved,active,
-84.4254324493057,33.845065929364,1086,08D,Northside Library,3295 Northside Pkwy,45/20,approved,active,
-84.5001943713033,33.7565814405208,1087,10C,Old Adamsville Emergency Shelter ,3404 Delmar Lane,46/20,approved,active,
-84.2104239985867,34.0639541646521,1088,JC04A,Dr. Robert E. Fulton Reg Library,5090 Abbotts Bridge Rd,47/20,approved,active,
-84.2104239985867,34.0639541646521,1089,JC04B,Dr. Robert E. Fulton Reg Library,5090 Abbotts Bridge Rd,47/20,approved,active,
-84.2104239985867,34.0639541646521,1090,JC04C,Dr. Robert E. Fulton Reg Library,5090 Abbotts Bridge Rd,47/20,approved,active,
-84.2231565437936,34.0144628357564,1091,JC12,Northeast/Spruill Oaks Library,9560 Spruill Road,48/20,approved,active,
-84.2976494379995,33.9607491158241,1092,SS01,Life Center Ministries Inc.,2690 Mount Vernon Road,50/20,approved,active,
-84.5272987528698,33.5581682590441,1093,SC211,Oakley Elementary School,7220 Oakley Terrace,49/20,approved,active,
-84.5272987528698,33.5581682590441,1094,SC212,Oakley Elementary School,7220 Oakley Terrace,49/20,approved,active,
-84.3790683024839,33.6800937919185,1098,12J,Rosel Fann Recreation Center,365 Cleveland Ave SE,66/20,approved,active,
-84.3916080169632,33.6813021445361,1100,12E1,Cleveland Avenue Library,47 Cleveland Ave,59/20,approved,active,
-84.3967872942224,33.7007910129771,1101,12F,John Birdine Neighborhood Facility,215 Lakewood Way Sw,67/20,approved,active,
-84.477946529768,33.7020913895363,1109,11R,Mount Carmel Baptist Church,2755 Campbellton Rd,56/20,approved,active,
-84.3844914050853,33.7745815132885,1117,02L1,Lutheran Church of the Redeemer,731 Peachtree St NE,51/20,approved,active,
-84.3950798253904,33.7139009114857,1118,12S,Arthur Langford Junior Recreation Center,1614 Arthur Langford Jr Pl SW,52/20,approved,active,
-84.392987680075,33.7643182114611,1119,04F,Center for Civil and Human Rights,100 Ivan Allen Jr. Blvd,53/20,approved,active,
-84.4704399755608,33.8021815799116,1120,09M,Springfield Baptist Church,1730 Hollywood Rd,54/20,approved,active,
-84.4551209069504,33.8172744439532,1121,09A,Bolton Academy ,2268 Adams Dr NW,55/20,approved,active,
-84.4777188068244,33.6642102937526,1122,EP03B,Asa G. Hilliard Elementary School,3353 Mount Olive Rd,57/20,approved,active,
-84.5793219530836,33.6883440426703,1123,FC01,Westlake High School,2400 Union Rd,58/20,approved,active,
-84.5793219530836,33.6883440426703,1124,SC01A,Westlake High School,2400 Union Rd,58/20,approved,active,
-84.5793219530836,33.6883440426703,1125,SC01B,Westlake High School,2400 Union Rd,58/20,approved,active,
-84.5793219530836,33.6883440426703,1126,SC01C,Westlake High School,2400 Union Rd,58/20,approved,active,
-84.4428178833204,33.7115592603659,1127,12L,The Love Center GRSBC,1680 Campbellton Rd SW,60/20,approved,active,
-84.3713017139966,33.8650255308554,1128,07C,Sarah Smith Intermediate School,4141 Wieuca Rd NE,61/20,approved,active,
-84.3984732421835,33.7412978170858,1131,04V,Dunbar Neighborhood Center,477 Windsor St SW,63/20,approved,active,
-84.4452378407784,33.6769715225744,1132,EP01B,Bowden Senior Center,2885 Church St,64/20,approved,active,
-84.5441251608974,33.6453336877348,1133,SC18A,Friendship Community Church,4141 Old Fairburn Rd,65/20,approved,active,
-84.5441251608974,33.6453336877348,1134,SC18B,Friendship Community Church,4141 Old Fairburn Rd,65/20,approved,active,
-84.5441251608974,33.6453336877348,1135,SC18C,Friendship Community Church,4141 Old Fairburn Rd,65/20,approved,active,
-84.4201900075599,33.7933357177236,1136,09G,Fowling Warehouse,1356 English St NW,62/20,approved,active,
-84.3891418651875,33.8197291055639,1137,08L,"Rivers, E School",8 Peachtree Battle Ave NW,68/20,approved,active,
-84.3859157601279,33.8421647397007,1138,08G,Atlanta History Center,130 West Faces Ferry Rd NW ,69/20,approved,active,
-84.3685609332156,33.7532620071147,1139,05A1,Dad's Garage Theatre,569 Ezzard St SE,70/20,approved,active,
-84.1751888057013,34.0511512885975,1140,JC02,Johns Crk United Methodist Ch,11180 Medlock Bridge Rd,73/20,approved,active,
-84.5925556703802,33.5868233061827,1141,FA01A,Open Word Christian Ministries,6230 Highway 92,72/20,approved,active,
-84.2152551493271,34.0613806719761,1142,JC08,Clear Springs Baptist Church,11575 Jones Bridge Rd,74/20,approved,active,
-84.3635822655123,33.9498901691456,1143,SS04,St Jude Catholic Church,7171 Glenridge Dr Ne,75/20,approved,active,
-84.4702179053286,33.7627806973916,1145,03C,Radcliffe Presbyterian Church,286 Hamilton E. Holmes Dr NW,77/20,approved,active,
-84.4207983499618,33.740350905867,1146,04K,West End Library,525 Peeples Street SW,78/20,approved,active,
-84.3931020632427,33.7805206209743,1147,03I,Georgia Tech McCamish Pavilion,965 Fowler St NW,79/20,approved,active,
-84.4062032358192,33.7525837875594,1148,03T,Friendship Baptist Church,80 Walnut St SW,71/20,approved,active,
-84.3931020632427,33.7805206209743,1149,02L2,Georgia Tech McCamish Pavilion,965 Fowler St NW,80/20,approved,active,
-84.3689573354907,33.7589862321898,1151,02S,David T. Howard Middle School ,551 John Wesley Dobbs Ave NE,81/20,approved,active,
-84.3689573354907,33.7589862321898,1152,05K,David T. Howard Middle School ,551 John Wesley Dobbs Ave NE,81/20,approved,active,
-84.3514745566261,34.031409777865,1153,RW03,Vickery Mill Elementary School,1201 Alpharetta St,76/20,approved,active,
-84.3622619885224,33.7827756983352,1154,06J,Morningside Elementary School,774 Virginia Ave,82/20,approved,active,
-84.3622619885224,33.7827756983352,1155,06B,Morningside Elementary School,774 Virginia Ave,82/20,approved,active,
-84.4195190995435,33.8366566921819,1157,08N1,Trinity Presbyterian Church,3003 Howell Mill Road NW,84/20,approved,active,
-84.4195190995435,33.8366566921819,1158,08N2,Trinity Presbyterian Church,3003 Howell Mill Road NW,84/20,approved,active,
-84.5068122379038,33.6904100070503,1159,11P,Saint.Mark AME Church,3605 Campbellton Rd SW,85/20,approved,active,
-84.5139418879657,33.6714567318328,1160,11E3,Deerwood Elementary School,3070 Fairburn Rd SW,86/20,approved,active,
-84.3108722767538,34.0739542898029,1161,AP021,American Legion Alpharetta,201 Wills Rd,87/20,approved,active,
-84.2395580342179,34.0757165987879,1162,AP05,Creek View Elementary School,3995 Webb Bridge Road,88/20,approved,active,
-84.2721686694149,34.0755261007964,1163,AP01B,St. James Um Church,3000 Webb Bridge Rd,89/20,approved,active,
-84.2721686694149,34.0755261007964,1164,AP07B,St. James Um Church,3000 Webb Bridge Rd,90/20,approved,active,
-84.3006909912487,34.0826977242156,1165,AP07A,Alpharetta Elem School,192 Mayfield Rd,91/20,approved,active,
-84.2321343642229,34.053973475456,1166,AP14,Ocee Elem School,4375 Kimball Bridge Rd,92/20,approved,active,
-84.2336296913136,34.0373711818987,1167,JC15,Dolvin Elementary School,10495 Jones Bridge Road,93/20,approved,active,
-84.4493769082584,33.6554977789897,1168,CP011,College Park library,3647 Main Street,94/20,approved,active,
-84.4189222817158,33.6911334708583,1169,EP02B,Impact Church,2323 Sylvan Road,95/20,approved,active,
-84.4189222817158,33.6911334708583,1170,EP02D,Impact Church,2323 Sylvan Road,95/20,approved,active,
-84.4189222817158,33.6911334708583,1171,EP02E,Impact Church,2323 Sylvan Road,95/20,approved,active,
-84.5265763219313,33.6375358973485,1172,EP04B,Camp Creek Middle School,4345 Welcome All Ter,96/20,approved,active,
-84.2799927392156,34.0204887029607,1173,JC18,Mount Pisgah United Methodist Church,2850 Old Alabama Rd,97/20,approved,active,
-84.2517322736347,34.0112411854874,1174,JC19,Barnwell Elementary School,9425 Barnwell Rd,98/20,approved,active,
-84.2799841721524,34.1010879592213,1175,ML04,Hopewell Middle School,13060 Cogburn Rd,99/20,approved,active,
-84.3616896067862,34.0402635860276,1176,RW01,Crabapple Middle School,10700 Crabapple Rd,100/20,approved,active,
-84.3689061407709,34.0376531898458,1177,RW10,Roswell North Elementary School,10525 Woodstock Rd,101/20,approved,active,
-84.3828402126398,34.0632021053881,1178,RW09,Roswell High School,11595 King Road,102/20,approved,active,
-84.5195387458386,33.587411255495,1179,SC08C,Gladys S Dennard Library at South Fulton   ,4055 Flat Shoals Rd,103/20,approved,active,
-84.5195387458386,33.587411255495,1180,SC08D,Gladys S Dennard Library at South Fulton   ,4055 Flat Shoals Rd,103/20,approved,active,
-84.5195387458386,33.587411255495,1181,SC08E,Gladys S Dennard Library at South Fulton   ,4055 Flat Shoals Rd,103/20,approved,active,
-84.5195387458386,33.587411255495,1182,SC08F,Gladys S Dennard Library at South Fulton   ,4055 Flat Shoals Rd,103/20,approved,active,
-84.5195387458386,33.587411255495,1183,SC08G,Gladys S Dennard Library at South Fulton   ,4055 Flat Shoals Rd,103/20,approved,active,
-84.5195387458386,33.587411255495,1184,SC08H,Gladys S Dennard Library at South Fulton   ,4055 Flat Shoals Rd,103/20,approved,active,
-84.4845859190966,33.5949498940984,1185,SC09C,McNair Middle School,2800 Burdett Rd,104/20,approved,active,
-84.4845859190966,33.5949498940984,1186,SC27,McNair Middle School,2800 Burdett Rd,104/20,approved,active,
-84.3644564665419,33.9569179988448,1187,SS26,North Springs High School,7447 Roswell Rd,105/20,approved,active,
-84.3824547730482,33.9498269880329,1188,SS02A,Spalding Drive Elem School,130 West Spalding Drive Ne,106/20,approved,active,
-84.3824547730482,33.9498269880329,1189,SS02B,Spalding Drive Elem School,130 West Spalding Drive Ne,106/20,approved,active,
-84.3821318026282,33.9221776475676,1190,SS07A,Heritage Hall Sandy Spring,6110 Blue Stone Rd,107/20,approved,active,
-84.3821318026282,33.9221776475676,1191,SS07B,Heritage Hall Sandy Spring,6110 Blue Stone Rd,107/20,approved,active,
-84.3821318026282,33.9221776475676,1192,SS07C,Heritage Hall Sandy Spring,6110 Blue Stone Rd,107/20,approved,active,
-84.3701253925766,33.899074896357,1193,SS11B,Highpoint Elementary School,520 Greenland Rd,108/20,approved,active,
-84.3701253925766,33.899074896357,1194,SS11C,Highpoint Elementary School,520 Greenland Rd,108/20,approved,active,
-84.3701253925766,33.899074896357,1195,SS11D,Highpoint Elementary School,520 Greenland Rd,108/20,approved,active,
-84.3702415099944,33.7396474200469,1196,01D,Grant Park Recreation Center,537  Park Avenue,109/20,approved,active,
-84.3702415099944,33.7396474200469,1197,01E,Grant Park Recreation Center,537  Park Avenue,109/20,approved,active,
-84.3787055221789,33.8316095928802,1198,07E,Garden Hills Elementary School,285 Sheridan Dr NE,110/20,approved,active,
-84.3787055221789,33.8316095928802,1199,07N,Garden Hills Elementary School,285 Sheridan Dr NE,110/20,approved,active,
-84.3368597456048,34.0606820338811,1200,RW16,Hembree Springs Elementary School,815 Hembree Rd,111/20,approved,active,
-84.3060760152874,34.0300100137734,1201,RW13,Northwood Elementary School,10200 Wooten Rd,112/20,approved,active,
-84.4809442792871,33.5711484220827,1202,SC23B,"Nolan, Love T. Elementary Sch",2725 Creel Road,113/20,approved,active,
-84.4809442792871,33.5711484220827,1203,SC23C,"Nolan, Love T. Elementary Sch",2725 Creel Road,113/20,approved,active,
-84.3536370711465,33.9779522181489,1204,SS19A,Ison Springs Elementary School      ,8261 Ison Rd,114/20,approved,active,
-84.3524086796757,33.9900424056463,1205,SS22,Sherwood Events         ,8610 Roswell Rd,115/20,approved,active,
-84.4811369656417,33.5932233083229,1207,SC11A,Bethune Elementary School,5925 Old Carriage Dr,117/20,approved,active,
-84.3670959499218,34.0723302109665,1209,RW09A,World Harvest Church       ,320 Hardscrabble Rd,102/20,approved,active,
-84.5091514270036,33.690489051809,1210,11N,Believers Bible Christian Church,3689 Campbellton Rd SW,83/20,approved,active,
-84.3566810180178,33.7930812768997,1211,06D1,Morningside Prebyterian Church ,1411 North Moringside Dr NE,119/20,approved,active,
-84.3541815660178,33.7968227938087,1212,06D2,Haygood Memorial United Methodist Church ,1015 E Rock Springs Rd NE,119/20,approved,active,
-84.1246452056114,34.0434514676796,1213,JC01A,River Trial Middle School ,10795 Rogers Circle,121/20,approved,active,
-84.5874973061374,33.5614161352789,1214,FA01D,New Beginnings Senior Center   ,66 Brooks Drive,122/20,approved,active,
-84.4269222612437,33.7851882607789,1215,08P,Mount Ephraim Baptist Church,1202 West Marietta St NW,125/20,approved,active,
-84.4269222612437,33.7851882607789,1216,09H,Mount Ephraim Baptist Church,1202 West Marietta St NW,125/20,approved,active,
-84.4784968786592,33.6666531333846,1217,EP04C,Woodland Middle School,2745 Stone Road,123/20,approved,active,
-84.4184485792597,33.7155931634564,1218,12A1,Sylvan Middle School     ,1461 Sylvan Rd SW,124/20,approved,active,
-84.3870047378576,33.7783583576348,1219,02A1,Historic Academy of Medicine   ,875 West Peachtree St NW,127/20,approved,active,
-84.4620966201157,33.7119125163962,1220,11M1,Adams Park Recreation Center,1620 Delowe Drive SW,128/20,approved,active,
-84.4704008560898,33.8029576334321,1221,09K1,Scott Elem School,1752 Hollywood Rd Nw,129/20,approved,active,
-84.3627968767719,34.0728020761457,1222,RW12A,Sweet Apple Elementary School,12025 Etris Rd,130/20,approved,active,
-84.6276791227253,33.5586730006537,1223,SC07D,Creekside High School    ,7405 Herndon Road ,132/20,approved,active,
-84.3662304868991,33.7730429572174,1225,02F1,Ponce City Market ,675 Ponce De Leon Ave NE,135/20,approved,active,
-84.3662304868991,33.7730429572174,1226,02F2,Ponce City Market ,675 Ponce De Leon Ave NE,135/20,approved,active,
-84.3797780123314,33.8403098605642,1227,07M,Buckhead Theatre    ,3110 Roswell Rd NE  ,136/20,approved,active,
-84.3689573354907,33.7589862321898,1228,05J,David T. Howard Middle School ,551 John Wesley Dobbs Ave NE,137/20,approved,active,
-84.5163546292124,33.6926974360943,1229,11B1,Southwest Atlanta Christian Academy ,3911 Campbellton Rd SW,138/20,approved,active,
-84.3809134527337,33.892317940544,1230,SS13A,North Fulton Training Center    ,5025 Roswell Road,139/20,approved,active,
-84.3809134527337,33.892317940544,1231,SS13B,North Fulton Training Center    ,5025 Roswell Road,139/20,approved,active,
-84.3200013295095,34.1183629065985,1232,ML03A,Summit Hill Elementaty School,13855 Providence Rd,140/20,approved,active,
-84.3850983885145,33.7726693622944,1233,02L1A,The Fox Theatre  ,660 Peachtree St NE,126/20,approved,active,
-84.5541450811838,33.5843921654424,1234,UC02C,The Gathering Place   ,6280 Bryant St    ,133/20,approved,active,
-84.6155502683037,33.6565321532861,1235,SC15A,Cliftondale Elementary School,3340 West Stubbs Rd,131/20,approved,active,
-84.3846956231096,33.9231620968837,1236,SS09B,Sandy Springs United Meth. Ch.,86 Mount Vernon Hwy Nw,142/20,approved,active,
-84.4065400523061,33.8330383545996,1240,08H,Sutton Middle School,2875 Northside Dr,143/20,approved,active,
